{"type": "FeatureCollection", "features": [ {"type": "Feature", "properties": {"norad_id": 67121, "name": "STARLINK-36124", "group": "last-30-days", "lat": -0.800169735860168, "lon": 54.27176573951853, "alt_km": 331.053496105038, "timestamp": "2025-12-26T07:29:17.196946+00:00", "meta": {"OBJECT_NAME": "STARLINK-36124", "OBJECT_ID": "2025-299V", "EPOCH": "2025-12-25T22:00:01.999584", "MEAN_MOTION": 15.81374766, "ECCENTRICITY": 0.00015257, "INCLINATION": 42.9966, "RA_OF_ASC_NODE": 235.8316, "ARG_OF_PERICENTER": 279.7333, "MEAN_ANOMALY": 169.2316, "EPHEMERIS_TYPE": 0, "CLASSIFICATION_TYPE": "U", "NORAD_CAT_ID": 67121, "ELEMENT_SET_NO": 999, "REV_AT_EPOCH": 292, "BSTAR": -0.010094945, "MEAN_MOTION_DOT": -0.01813138, "MEAN_MOTION_DDOT": 0}, "tle": {"line1": "1 67121U 25299V   25359.91668981 -.01813138  00000+0 -10095-1 0  9998", "line2": "2 67121  42.9966 235.8316 0001525 279.7333 169.2316 15.81374766  2929"}}, "geometry": {"type": "Point", "coordinates": [54.27176573951853, -0.800169735860168]}}, {"type": "Feature", "properties": {"norad_id": 67122, "name": "STARLINK-36188", "group": "last-30-days", "lat": -1.8572274035020984, "lon": 55.4035434050921, "alt_km": 330.8680488196851, "timestamp": "2025-12-26T07:29:17.196962+00:00", "meta": {"OBJECT_NAME": "STARLINK-36188", "OBJECT_ID": "2025-299W", "EPOCH": "2025-12-25T22:00:01.999584", "MEAN_MOTION": 15.81389853, "ECCENTRICITY": 0.00015852, "INCLINATION": 42.9968, "RA_OF_ASC_NODE": 235.8279, "ARG_OF_PERICENTER": 270.0752, "MEAN_ANOMALY": 180.4211, "EPHEMERIS_TYPE": 0, "CLASSIFICATION_TYPE": "U", "NORAD_CAT_ID": 67122, "ELEMENT_SET_NO": 999, "REV_AT_EPOCH": 292, "BSTAR": -0.010093525, "MEAN_MOTION_DOT": -0.01814097, "MEAN_MOTION_DDOT": 0}, "tle": {"line1": "1 67122U 25299W   25359.91668981 -.01814097  00000+0 -10094-1 0  9993", "line2": "2 67122  42.9968 235.8279 0001585 270.0752 180.4211 15.81389853  2927"}}, "geometry": {"type": "Point", "coordinates": [55.4035434050921, -1.8572274035020984]}}, {"type": "Feature", "properties": {"norad_id": 67123, "name": "STARLINK-36151", "group": "last-30-days", "lat": 0.41508682351585086, "lon": 52.972294830417496, "alt_km": 330.77881076124504, "timestamp": "2025-12-26T07:29:17.196974+00:00", "meta": {"OBJECT_NAME": "STARLINK-36151", "OBJECT_ID": "2025-299X", "EPOCH": "2025-12-25T22:00:01.999584", "MEAN_MOTION": 15.81367287, "ECCENTRICITY": 0.00015098, "INCLINATION": 42.997, "RA_OF_ASC_NODE": 235.8365, "ARG_OF_PERICENTER": 273.0499, "MEAN_ANOMALY": 174.1416, "EPHEMERIS_TYPE": 0, "CLASSIFICATION_TYPE": "U", "NORAD_CAT_ID": 67123, "ELEMENT_SET_NO": 999, "REV_AT_EPOCH": 292, "BSTAR": -0.01008317, "MEAN_MOTION_DOT": -0.01810709, "MEAN_MOTION_DDOT": 0}, "tle": {"line1": "1 67123U 25299X   25359.91668981 -.01810709  00000+0 -10083-1 0  9998", "line2": "2 67123  42.9970 235.8365 0001509 273.0499 174.1416 15.81367287  2928"}}, "geometry": {"type": "Point", "coordinates": [52.972294830417496, 0.41508682351585086]}}, {"type": "Feature", "properties": {"norad_id": 67124, "name": "STARLINK-36195", "group": "last-30-days", "lat": -3.011331223636532, "lon": 56.641869182993915, "alt_km": 330.99362366213427, "timestamp": "2025-12-26T07:29:17.196986+00:00", "meta": {"OBJECT_NAME": "STARLINK-36195", "OBJECT_ID": "2025-299Y", "EPOCH": "2025-12-25T22:00:01.999584", "MEAN_MOTION": 15.81394386, "ECCENTRICITY": 0.00015782, "INCLINATION": 42.9971, "RA_OF_ASC_NODE": 235.824, "ARG_OF_PERICENTER": 271.7012, "MEAN_ANOMALY": 180.4806, "EPHEMERIS_TYPE": 0, "CLASSIFICATION_TYPE": "U", "NORAD_CAT_ID": 67124, "ELEMENT_SET_NO": 999, "REV_AT_EPOCH": 292, "BSTAR": -0.010067063, "MEAN_MOTION_DOT": -0.01810257, "MEAN_MOTION_DDOT": 0}, "tle": {"line1": "1 67124U 25299Y   25359.91668981 -.01810257  00000+0 -10067-1 0  9999", "line2": "2 67124  42.9971 235.8240 0001578 271.7012 180.4806 15.81394386  2927"}}, "geometry": {"type": "Point", "coordinates": [56.641869182993915, -3.011331223636532]}}, {"type": "Feature", "properties": {"norad_id": 67125, "name": "STARLINK-36219", "group": "last-30-days", "lat": -4.11089450414364, "lon": 57.82458517754447, "alt_km": 331.1295557164294, "timestamp": "2025-12-26T07:29:17.196996+00:00", "meta": {"OBJECT_NAME": "STARLINK-36219", "OBJECT_ID": "2025-299Z", "EPOCH": "2025-12-25T22:00:01.999584", "MEAN_MOTION": 15.81409511, "ECCENTRICITY": 0.00014889, "INCLINATION": 42.9966, "RA_OF_ASC_NODE": 235.8193, "ARG_OF_PERICENTER": 274.3527, "MEAN_ANOMALY": 179.4264, "EPHEMERIS_TYPE": 0, "CLASSIFICATION_TYPE": "U", "NORAD_CAT_ID": 67125, "ELEMENT_SET_NO": 999, "REV_AT_EPOCH": 292, "BSTAR": -0.010090386, "MEAN_MOTION_DOT": -0.01814986, "MEAN_MOTION_DDOT": 0}, "tle": {"line1": "1 67125U 25299Z   25359.91668981 -.01814986  00000+0 -10090-1 0  9999", "line2": "2 67125  42.9966 235.8193 0001488 274.3527 179.4264 15.81409511  2922"}}, "geometry": {"type": "Point", "coordinates": [57.82458517754447, -4.11089450414364]}}, {"type": "Feature", "properties": {"norad_id": 67126, "name": "STARLINK-36223", "group": "last-30-days", "lat": -5.374291111979624, "lon": 59.19090082016519, "alt_km": 331.1503653558966, "timestamp": "2025-12-26T07:29:17.197005+00:00", "meta": {"OBJECT_NAME": "STARLINK-36223", "OBJECT_ID": "2025-299AA", "EPOCH": "2025-12-25T22:00:01.999584", "MEAN_MOTION": 15.81408676, "ECCENTRICITY": 0.00015675, "INCLINATION": 42.9968, "RA_OF_ASC_NODE": 235.8148, "ARG_OF_PERICENTER": 271.2014, "MEAN_ANOMALY": 184.438, "EPHEMERIS_TYPE": 0, "CLASSIFICATION_TYPE": "U", "NORAD_CAT_ID": 67126, "ELEMENT_SET_NO": 999, "REV_AT_EPOCH": 292, "BSTAR": -0.010066439, "MEAN_MOTION_DOT": -0.01811217, "MEAN_MOTION_DDOT": 0}, "tle": {"line1": "1 67126U 25299AA  25359.91668981 -.01811217  00000+0 -10066-1 0  9997", "line2": "2 67126  42.9968 235.8148 0001567 271.2014 184.4380 15.81408676  2926"}}, "geometry": {"type": "Point", "coordinates": [59.19090082016519, -5.374291111979624]}}, {"type": "Feature", "properties": {"norad_id": 67127, "name": "STARLINK-36164", "group": "last-30-days", "lat": -6.541718864064957, "lon": 60.46131523368344, "alt_km": 331.2282899075208, "timestamp": "2025-12-26T07:29:17.197015+00:00", "meta": {"OBJECT_NAME": "STARLINK-36164", "OBJECT_ID": "2025-299AB", "EPOCH": "2025-12-25T22:00:01.999584", "MEAN_MOTION": 15.81413263, "ECCENTRICITY": 0.0001528, "INCLINATION": 42.9967, "RA_OF_ASC_NODE": 235.8105, "ARG_OF_PERICENTER": 271.1106, "MEAN_ANOMALY": 186.2434, "EPHEMERIS_TYPE": 0, "CLASSIFICATION_TYPE": "U", "NORAD_CAT_ID": 67127, "ELEMENT_SET_NO": 999, "REV_AT_EPOCH": 292, "BSTAR": -0.010046191, "MEAN_MOTION_DOT": -0.01808328, "MEAN_MOTION_DDOT": 0}, "tle": {"line1": "1 67127U 25299AB  25359.91668981 -.01808328  00000+0 -10046-1 0  9995", "line2": "2 67127  42.9967 235.8105 0001528 271.1106 186.2434 15.81413263  2925"}}, "geometry": {"type": "Point", "coordinates": [60.46131523368344, -6.541718864064957]}}, {"type": "Feature", "properties": {"norad_id": 67128, "name": "STARLINK-35685", "group": "last-30-days", "lat": -9.627424459495035, "lon": 63.869570345804675, "alt_km": 331.671407555491, "timestamp": "2025-12-26T07:29:17.197025+00:00", "meta": {"OBJECT_NAME": "STARLINK-35685", "OBJECT_ID": "2025-299AC", "EPOCH": "2025-12-25T22:00:01.999584", "MEAN_MOTION": 15.81385938, "ECCENTRICITY": 0.00015036, "INCLINATION": 42.9965, "RA_OF_ASC_NODE": 235.7985, "ARG_OF_PERICENTER": 275.6949, "MEAN_ANOMALY": 186.2795, "EPHEMERIS_TYPE": 0, "CLASSIFICATION_TYPE": "U", "NORAD_CAT_ID": 67128, "ELEMENT_SET_NO": 999, "REV_AT_EPOCH": 292, "BSTAR": -0.010056784, "MEAN_MOTION_DOT": -0.01807939, "MEAN_MOTION_DDOT": 0}, "tle": {"line1": "1 67128U 25299AC  25359.91668981 -.01807939  00000+0 -10057-1 0  9995", "line2": "2 67128  42.9965 235.7985 0001503 275.6949 186.2795 15.81385938  2923"}}, "geometry": {"type": "Point", "coordinates": [63.869570345804675, -9.627424459495035]}}, {"type": "Feature", "properties": {"norad_id": 67129, "name": "STARLINK-36214", "group": "last-30-days", "lat": -7.859870534115955, "lon": 61.907086542567946, "alt_km": 331.4004839051013, "timestamp": "2025-12-26T07:29:17.197035+00:00", "meta": {"OBJECT_NAME": "STARLINK-36214", "OBJECT_ID": "2025-299AD", "EPOCH": "2025-12-25T22:00:01.999584", "MEAN_MOTION": 15.81413106, "ECCENTRICITY": 0.00015208, "INCLINATION": 42.9966, "RA_OF_ASC_NODE": 235.8054, "ARG_OF_PERICENTER": 273.306, "MEAN_ANOMALY": 186.002, "EPHEMERIS_TYPE": 0, "CLASSIFICATION_TYPE": "U", "NORAD_CAT_ID": 67129, "ELEMENT_SET_NO": 999, "REV_AT_EPOCH": 292, "BSTAR": -0.010062026, "MEAN_MOTION_DOT": -0.0181081, "MEAN_MOTION_DDOT": 0}, "tle": {"line1": "1 67129U 25299AD  25359.91668981 -.01810810  00000+0 -10062-1 0  9994", "line2": "2 67129  42.9966 235.8054 0001520 273.3060 186.0020 15.81413106  2929"}}, "geometry": {"type": "Point", "coordinates": [61.907086542567946, -7.859870534115955]}}, {"type": "Feature", "properties": {"norad_id": 67130, "name": "STARLINK-36194", "group": "last-30-days", "lat": -12.553511872028217, "lon": 67.19760862603772, "alt_km": 332.1283850415057, "timestamp": "2025-12-26T07:29:17.197044+00:00", "meta": {"OBJECT_NAME": "STARLINK-36194", "OBJECT_ID": "2025-299AE", "EPOCH": "2025-12-25T22:00:01.999584", "MEAN_MOTION": 15.81296345, "ECCENTRICITY": 0.00013186, "INCLINATION": 42.9965, "RA_OF_ASC_NODE": 235.7889, "ARG_OF_PERICENTER": 274.0482, "MEAN_ANOMALY": 192.446, "EPHEMERIS_TYPE": 0, "CLASSIFICATION_TYPE": "U", "NORAD_CAT_ID": 67130, "ELEMENT_SET_NO": 999, "REV_AT_EPOCH": 292, "BSTAR": -0.010113062, "MEAN_MOTION_DOT": -0.01809945, "MEAN_MOTION_DDOT": 0}, "tle": {"line1": "1 67130U 25299AE  25359.91668981 -.01809945  00000+0 -10113-1 0  9990", "line2": "2 67130  42.9965 235.7889 0001318 274.0482 192.4460 15.81296345  2929"}}, "geometry": {"type": "Point", "coordinates": [67.19760862603772, -12.553511872028217]}}]}